KUIPER-00035            
1 63748U 25088AA  25275.68750744  .00001898  00000+0  27799-3 0  9995
2 63748  51.8994  92.7870 0004257 264.3626  95.6851 14.79939643 24113
KUIPER-00037            
1 63749U 25088AB  25275.68910809 -.00001740  00000+0 -19893-3 0  9990
2 63749  51.8973  91.7395 0007152 205.6292 154.4317 14.79930711 24912
KUIPER-00038            
1 63750U 25088AC  25275.66470706  .00005288  00000+0  76103-3 0  9993
2 63750  51.9007  76.4324 0005271 276.8441  83.1921 14.77680267 24129
KUIPER-00039            
1 64500U 25134A   25275.54260933  .00012978  00000+0  17437-2 0  9993
2 64500  51.8991 212.3969 0012752 131.2233 228.9831 14.79506000 16657
KUIPER-00040            
1 64501U 25134B   25275.59801654  .00001286  00000+0  19717-3 0  9994
2 64501  51.8981 223.3224 0019773 106.9853 253.3278 14.80063273 16503
KUIPER-00041            
1 64502U 25134C   25275.59688425  .00003193  00000+0  44774-3 0  9994
2 64502  51.8971 224.6850 0015072 102.5329 257.7320 14.79901566 16487
KUIPER-00042            
1 64503U 25134D   25275.26265957  .00012352  00000+0  16696-2 0  9998
2 64503  51.8977 222.1561 0014440 111.0769 249.1738 14.79279731 16498
KUIPER-00043            
1 64504U 25134E   25275.66668980  .00033055  00000+0  43393-2 0  9993
2 64504  51.9003 212.8016 0004455 109.4390 198.8714 14.79971049  5322
